{
  "type": "FeatureCollection",
  "features": [
    {
      "type": "Feature",
      "properties": {
        "norad_id": 48859,
        "name": "GPS BIII-5  (PRN 11)",
        "group": "gnss",
        "lat": 1.1808736361423589,
        "lon": 159.0470532819437,
        "alt_km": 20145.618830243602,
        "timestamp": "2025-12-14T18:52:55.747253+00:00",
        "meta_object_name": "GPS BIII-5  (PRN 11)",
        "meta_object_id": "2021-054A",
        "meta_epoch": "2025-12-08T04:14:32.423424",
        "meta_mean_motion": 2.00553627,
        "meta_eccentricity": 0.0024678,
        "meta_inclination": 55.2581,
        "meta_ra_of_asc_node": 340.1367,
        "meta_arg_of_pericenter": 233.3994,
        "meta_mean_anomaly": 212.8593,
        "meta_ephemeris_type": 0,
        "meta_classification_type": "U",
        "meta_norad_cat_id": 48859,
        "meta_element_set_no": 999,
        "meta_rev_at_epoch": 3292,
        "meta_bstar": 0,
        "meta_mean_motion_dot": -8.6e-07,
        "meta_mean_motion_ddot": 0,
        "tle_line1": "1 48859U 21054A   25342.17676416 -.00000086  00000+0  00000+0 0  9993",
        "tle_line2": "2 48859  55.2581 340.1367 0024678 233.3994 212.8593  2.00553627 32922"
      },
      "geometry": {
        "type": "Point",
        "coordinates": [
          159.0470532819437,
          1.1808736361423589
        ]
      }
    },
    {
      "type": "Feature",
      "properties": {
        "norad_id": 49336,
        "name": "QZS-1R (QZSS/PRN 196)",
        "group": "gnss",
        "lat": 32.692909348892904,
        "lon": 140.34874520447664,
        "alt_km": 38538.43094831556,
        "timestamp": "2025-12-14T18:52:55.747267+00:00",
        "meta_object_name": "QZS-1R (QZSS/PRN 196)",
        "meta_object_id": "2021-096A",
        "meta_epoch": "2025-12-13T14:08:09.316608",
        "meta_mean_motion": 1.00257492,
        "meta_eccentricity": 0.07555271,
        "meta_inclination": 37.0792,
        "meta_ra_of_asc_node": 82.3463,
        "meta_arg_of_pericenter": 271.3489,
        "meta_mean_anomaly": 75.5912,
        "meta_ephemeris_type": 0,
        "meta_classification_type": "U",
        "meta_norad_cat_id": 49336,
        "meta_element_set_no": 999,
        "meta_rev_at_epoch": 1514,
        "meta_bstar": 0,
        "meta_mean_motion_dot": -2.77e-06,
        "meta_mean_motion_ddot": 0,
        "tle_line1": "1 49336U 21096A   25347.58899672 -.00000277  00000+0  00000+0 0  9993",
        "tle_line2": "2 49336  37.0792  82.3463 0755527 271.3489  75.5912  1.00257492 15146"
      },
      "geometry": {
        "type": "Point",
        "coordinates": [
          140.34874520447664,
          32.692909348892904
        ]
      }
    },
    {
      "type": "Feature",
      "properties": {
        "norad_id": 49809,
        "name": "GSAT0223 (GALILEO 27)",
        "group": "gnss",
        "lat": -8.927558050835188,
        "lon": -19.154288563721323,
        "alt_km": 23225.26002856798,
        "timestamp": "2025-12-14T18:52:55.747279+00:00",
        "meta_object_name": "GSAT0223 (GALILEO 27)",
        "meta_object_id": "2021-116A",
        "meta_epoch": "2025-12-10T02:39:25.687008",
        "meta_mean_motion": 1.70475768,
        "meta_eccentricity": 0.000463,
        "meta_inclination": 57.2198,
        "meta_ra_of_asc_node": 346.7831,
        "meta_arg_of_pericenter": 251.6037,
        "meta_mean_anomaly": 107.9349,
        "meta_ephemeris_type": 0,
        "meta_classification_type": "U",
        "meta_norad_cat_id": 49809,
        "meta_element_set_no": 999,
        "meta_rev_at_epoch": 2495,
        "meta_bstar": 0,
        "meta_mean_motion_dot": -8.7e-07,
        "meta_mean_motion_ddot": 0,
        "tle_line1": "1 49809U 21116A   25344.11071397 -.00000087  00000+0  00000+0 0  9992",
        "tle_line2": "2 49809  57.2198 346.7831 0004630 251.6037 107.9349  1.70475768 24951"
      },
      "geometry": {
        "type": "Point",
        "coordinates": [
          -19.154288563721323,
          -8.927558050835188
        ]
      }
    },
    {
      "type": "Feature",
      "properties": {
        "norad_id": 49810,
        "name": "GSAT0224 (GALILEO 28)",
        "group": "gnss",
        "lat": 55.33142244043132,
        "lon": 97.93795397286391,
        "alt_km": 23226.0629620221,
        "timestamp": "2025-12-14T18:52:55.747290+00:00",
        "meta_object_name": "GSAT0224 (GALILEO 28)",
        "meta_object_id": "2021-116B",
        "meta_epoch": "2025-12-13T17:44:11.129280",
        "meta_mean_motion": 1.70476102,
        "meta_eccentricity": 0.00038364,
        "meta_inclination": 57.22,
        "meta_ra_of_asc_node": 346.684,
        "meta_arg_of_pericenter": 258.6964,
        "meta_mean_anomaly": 280.205,
        "meta_ephemeris_type": 0,
        "meta_classification_type": "U",
        "meta_norad_cat_id": 49810,
        "meta_element_set_no": 999,
        "meta_rev_at_epoch": 2504,
        "meta_bstar": 0,
        "meta_mean_motion_dot": -8.5e-07,
        "meta_mean_motion_ddot": 0,
        "tle_line1": "1 49810U 21116B   25347.73901770 -.00000085  00000+0  00000+0 0  9990",
        "tle_line2": "2 49810  57.2200 346.6840 0003836 258.6964 280.2050  1.70476102 25047"
      },
      "geometry": {
        "type": "Point",
        "coordinates": [
          97.93795397286391,
          55.33142244043132
        ]
      }
    },
    {
      "type": "Feature",
      "properties": {
        "norad_id": 52984,
        "name": "COSMOS 2557 (706K)",
        "group": "gnss",
        "lat": 60.386015060205075,
        "lon": 18.42689836814763,
        "alt_km": 19155.672033975257,
        "timestamp": "2025-12-14T18:52:55.747302+00:00",
        "meta_object_name": "COSMOS 2557 (706K)",
        "meta_object_id": "2022-075A",
        "meta_epoch": "2025-12-07T04:21:00.419904",
        "meta_mean_motion": 2.13101754,
        "meta_eccentricity": 0.00137049,
        "meta_inclination": 64.4129,
        "meta_ra_of_asc_node": 321.247,
        "meta_arg_of_pericenter": 276.9,
        "meta_mean_anomaly": 82.939,
        "meta_ephemeris_type": 0,
        "meta_classification_type": "U",
        "meta_norad_cat_id": 52984,
        "meta_element_set_no": 999,
        "meta_rev_at_epoch": 2662,
        "meta_bstar": 0,
        "meta_mean_motion_dot": -5.2e-07,
        "meta_mean_motion_ddot": 0,
        "tle_line1": "1 52984U 22075A   25341.18125486 -.00000052  00000+0  00000+0 0  9990",
        "tle_line2": "2 52984  64.4129 321.2470 0013704 276.9000  82.9390  2.13101754 26625"
      },
      "geometry": {
        "type": "Point",
        "coordinates": [
          18.42689836814763,
          60.386015060205075
        ]
      }
    },
    {
      "type": "Feature",
      "properties": {
        "norad_id": 54031,
        "name": "COSMOS 2559 (707K)",
        "group": "gnss",
        "lat": -29.803485205869357,
        "lon": 157.00775788035907,
        "alt_km": 19106.00004706292,
        "timestamp": "2025-12-14T18:52:55.747312+00:00",
        "meta_object_name": "COSMOS 2559 (707K)",
        "meta_object_id": "2022-130A",
        "meta_epoch": "2025-12-13T13:40:56.182944",
        "meta_mean_motion": 2.13101371,
        "meta_eccentricity": 0.00117769,
        "meta_inclination": 64.3818,
        "meta_ra_of_asc_node": 321.1118,
        "meta_arg_of_pericenter": 192.371,
        "meta_mean_anomaly": 167.5998,
        "meta_ephemeris_type": 0,
        "meta_classification_type": "U",
        "meta_norad_cat_id": 54031,
        "meta_element_set_no": 999,
        "meta_rev_at_epoch": 2473,
        "meta_bstar": 0,
        "meta_mean_motion_dot": -6.4e-07,
        "meta_mean_motion_ddot": 0,
        "tle_line1": "1 54031U 22130A   25347.57009471 -.00000064  00000+0  00000+0 0  9994",
        "tle_line2": "2 54031  64.3818 321.1118 0011776 192.3710 167.5998  2.13101371 24737"
      },
      "geometry": {
        "type": "Point",
        "coordinates": [
          157.00775788035907,
          -29.803485205869357
        ]
      }
    },
    {
      "type": "Feature",
      "properties": {
        "norad_id": 54377,
        "name": "COSMOS 2564 (761)",
        "group": "gnss",
        "lat": -24.29237207190671,
        "lon": -173.47142842258367,
        "alt_km": 19146.93863834531,
        "timestamp": "2025-12-14T18:52:55.747324+00:00",
        "meta_object_name": "COSMOS 2564 (761)",
        "meta_object_id": "2022-161A",
        "meta_epoch": "2025-12-13T09:56:35.350656",
        "meta_mean_motion": 2.13102091,
        "meta_eccentricity": 0.00086002,
        "meta_inclination": 64.7383,
        "meta_ra_of_asc_node": 198.8765,
        "meta_arg_of_pericenter": 204.6894,
        "meta_mean_anomaly": 155.3431,
        "meta_ephemeris_type": 0,
        "meta_classification_type": "U",
        "meta_norad_cat_id": 54377,
        "meta_element_set_no": 999,
        "meta_rev_at_epoch": 2367,
        "meta_bstar": 0,
        "meta_mean_motion_dot": 8.1e-07,
        "meta_mean_motion_ddot": 0,
        "tle_line1": "1 54377U 22161A   25347.41429804  .00000081  00000+0  00000+0 0  9998",
        "tle_line2": "2 54377  64.7383 198.8765 0008600 204.6894 155.3431  2.13102091 23679"
      },
      "geometry": {
        "type": "Point",
        "coordinates": [
          -173.47142842258367,
          -24.29237207190671
        ]
      }
    }
  ]
}